OBJECT_NAME,OBJECT_ID,EPOCH,MEAN_MOTION,ECCENTRICITY,INCLINATION,RA_OF_ASC_NODE,ARG_OF_PERICENTER,MEAN_ANOMALY,EPHEMERIS_TYPE,CLASSIFICATION_TYPE,NORAD_CAT_ID,ELEMENT_SET_NO,REV_AT_EPOCH,BSTAR,MEAN_MOTION_DOT,MEAN_MOTION_DDOT
ONEWEB-0578,2023-043X,2026-07-14T15:44:49.178400,13.21826568,.00021025,87.9240,238.5062,88.9102,271.2273,0,U,56067,999,16186,.73657677E-4,.43E-6,0
ONEWEB-0579,2023-043Y,2026-07-14T13:43:40.120896,13.21827672,.0002103,87.9242,238.5216,103.6983,256.4385,0,U,56068,999,16186,-.87555E-4,-.23E-6,0
ONEWEB-0581,2023-043Z,2026-07-14T14:02:38.173920,13.16595100,.0001516,87.9073,223.3419,89.0952,271.0353,0,U,56069,999,16256,-.50828E-6,.13E-6,0
ONEWEB-0609,2023-043AA,2026-07-14T15:18:49.889952,13.15547062,.00021749,87.8985,253.7414,97.9393,262.1984,0,U,56070,999,16004,-.37186043E-3,-.127E-5,0
ONEWEB-0613,2023-043AB,2026-07-14T17:04:56.059680,13.15548417,.00022191,87.8985,253.7392,105.1552,254.9824,0,U,56071,999,16005,-.38785347E-4,-.2E-7,0
ONEWEB-0630,2023-043AC,2026-07-14T16:58:05.045376,13.15548822,.00021497,87.8993,253.7134,104.9073,255.2296,0,U,56072,999,16004,.87807062E-4,.46E-6,0
ONEWEB-0632,2023-043AD,2026-07-14T16:51:15.161184,13.15547611,.00018821,87.8988,253.7312,99.1536,260.9807,0,U,56073,999,16004,.163786E-3,.74E-6,0
ONEWEB-0633,2023-043AE,2026-07-14T16:42:07.426656,13.15548672,.00023804,87.8995,253.7101,106.2503,253.8890,0,U,56074,999,16002,.30314881E-3,.127E-5,0
ONEWEB-0634,2023-043AF,2026-07-14T14:32:04.055136,13.15547813,.00022879,87.8983,253.7667,92.6223,267.5169,0,U,56075,999,16000,.36168609E-3,.149E-5,0
ONEWEB-0635,2023-043AG,2026-07-14T16:14:44.416608,13.15547742,.00017847,87.8991,253.7171,97.8968,262.2365,0,U,56076,999,16004,.45560294E-3,.184E-5,0
ONEWEB-0636,2023-043AH,2026-07-14T16:03:19.408896,13.15548181,.00018818,87.8990,253.7242,96.7705,263.3639,0,U,56077,999,16002,-.12707154E-3,-.35E-6,0
ONEWEB-0637,2023-043AJ,2026-07-14T15:54:12.052800,13.15548375,.00019741,87.8982,253.7401,90.1250,270.0106,0,U,56078,999,16004,-.27180961E-3,-.89E-6,0
ONEWEB-0647,2023-043AK,2026-07-14T15:47:21.186240,13.15549252,.0001973,87.8983,253.7540,101.3453,258.7899,0,U,56079,999,16003,-.51126408E-3,-.18E-5,0
ONEWEB-0651,2023-043AL,2026-07-14T22:58:36.359328,13.15548611,.00018564,87.8984,253.6872,93.2240,266.9103,0,U,56080,999,16127,-.10030831E-3,-.25E-6,0
ONEWEB-0718,2023-043AM,2026-07-14T15:33:39.736512,13.15549283,.00025396,87.8989,253.7293,93.0906,267.0515,0,U,56081,999,16004,-.32369748E-3,-.109E-5,0
ONEWEB-0561,2023-068A,2026-07-14T16:44:13.575840,13.20769761,.00017547,87.9186,268.9617,104.2617,255.8711,0,U,56710,999,15313,.1066983E-3,.56E-6,0
ONEWEB-0668,2023-068B,2026-07-14T15:15:35.769888,13.16594950,.00023801,87.9081,223.3200,80.0902,280.0498,0,U,56711,999,15539,-.11500181E-3,-.31E-6,0
ONEWEB-0676,2023-068C,2026-07-14T13:37:34.163328,13.16594582,.0001729,87.9080,223.3400,91.0810,269.0519,0,U,56712,999,15530,-.74733E-4,-.16E-6,0
ONEWEB-0677,2023-068D,2026-07-14T18:16:22.151136,13.20771830,.0001861,87.9185,268.9399,89.0979,271.0368,0,U,56713,999,15344,.58600173E-4,.37E-6,0
ONEWEB-0678,2023-068E,2026-07-14T16:37:33.629376,13.15548221,.00020261,87.8995,253.7153,105.6615,254.4739,0,U,56714,999,15290,.33641552E-3,.139E-5,0
ONEWEB-0679,2023-068F,2026-07-14T14:27:43.218720,13.16594615,.0001954,87.9078,223.3245,78.0690,282.0660,0,U,56715,999,15533,.34123E-3,.143E-5,0
ONEWEB-0680,2023-068G,2026-07-14T15:35:06.466560,13.21825839,.00022606,87.9242,238.5078,81.3441,278.7949,0,U,56716,999,15472,.43309252E-4,.31E-6,0
ONEWEB-0681,2023-068H,2026-07-14T15:07:14.853792,13.21826991,.00011131,87.9238,238.5121,93.0688,267.0574,0,U,56717,999,15471,-.65910038E-4,-.14E-6,0
ONEWEB-0682,2023-068J,2026-07-14T17:11:47.258016,13.15547953,.00021984,87.8995,253.7105,84.3898,275.7483,0,U,56718,999,15307,-.30973319E-3,-.104E-5,0
ONEWEB-0683,2023-068K,2026-07-14T15:56:29.015808,13.15548575,.00022595,87.8994,253.7214,93.4610,266.6779,0,U,56719,999,15303,-.26803587E-3,-.88E-6,0
ONEWEB-0684,2023-068L,2026-07-14T16:07:53.324544,13.15549332,.00030027,87.8991,253.7093,120.3631,239.7796,0,U,56720,999,15286,.47906927E-4,.31E-6,0
ONEWEB-0686,2023-068M,2026-07-14T13:30:43.797888,13.16593856,.0002428,87.9071,223.3533,92.8269,267.3139,0,U,56721,999,15531,.88531E-4,.47E-6,0
ONEWEB-0694,2023-068N,2026-07-14T13:39:50.925024,13.16593405,.0002291,87.9092,223.3216,82.0079,278.1312,0,U,56722,999,15537,-.32147E-4,.1E-7,0
ONEWEB-0696,2023-068P,2026-07-14T16:55:48.029664,13.15549740,.00020615,87.8987,253.7387,113.3515,246.7833,0,U,56723,999,15298,.97509976E-4,.5E-6,0
ONEWEB-0703,2023-068Q,2026-07-14T17:09:29.627136,13.15547823,.00017596,87.8990,253.7177,125.4804,234.6490,0,U,56724,999,15287,-.10181194E-3,-.26E-6,0
