ONEWEB-0578             
1 56067U 23043X   26195.65612475  .00000043  00000+0  73658-4 0  9994
2 56067  87.9240 238.5062 0002102  88.9102 271.2273 13.21826568161863
ONEWEB-0579             
1 56068U 23043Y   26195.57199214 -.00000023  00000+0 -87555-4 0  9998
2 56068  87.9242 238.5216 0002103 103.6983 256.4385 13.21827672161866
ONEWEB-0581             
1 56069U 23043Z   26195.58516405  .00000013  00000+0 -50828-6 0  9998
2 56069  87.9073 223.3419 0001516  89.0952 271.0353 13.16595100162564
ONEWEB-0609             
1 56070U 23043AA  26195.63807743 -.00000127  00000+0 -37186-3 0  9990
2 56070  87.8985 253.7414 0002174  97.9393 262.1984 13.15547062160042
ONEWEB-0613             
1 56071U 23043AB  26195.71175995 -.00000002  00000+0 -38785-4 0  9996
2 56071  87.8985 253.7392 0002219 105.1552 254.9824 13.15548417160055
ONEWEB-0630             
1 56072U 23043AC  26195.70700284  .00000046  00000+0  87807-4 0  9996
2 56072  87.8993 253.7134 0002149 104.9073 255.2296 13.15548822160042
ONEWEB-0632             
1 56073U 23043AD  26195.70225881  .00000074  00000+0  16379-3 0  9998
2 56073  87.8988 253.7312 0001882  99.1536 260.9807 13.15547611160043
ONEWEB-0633             
1 56074U 23043AE  26195.69591929  .00000127  00000+0  30315-3 0  9991
2 56074  87.8995 253.7101 0002380 106.2503 253.8890 13.15548672160025
ONEWEB-0634             
1 56075U 23043AF  26195.60560249  .00000149  00000+0  36169-3 0  9991
2 56075  87.8983 253.7667 0002287  92.6223 267.5169 13.15547813160008
ONEWEB-0635             
1 56076U 23043AG  26195.67690297  .00000184  00000+0  45560-3 0  9990
2 56076  87.8991 253.7171 0001784  97.8968 262.2365 13.15547742160047
ONEWEB-0636             
1 56077U 23043AH  26195.66897464 -.00000035  00000+0 -12707-3 0  9999
2 56077  87.8990 253.7242 0001881  96.7705 263.3639 13.15548181160023
ONEWEB-0637             
1 56078U 23043AJ  26195.66263950 -.00000089  00000+0 -27181-3 0  9998
2 56078  87.8982 253.7401 0001974  90.1250 270.0106 13.15548375160049
ONEWEB-0647             
1 56079U 23043AK  26195.65788410 -.00000180  00000+0 -51126-3 0  9999
2 56079  87.8983 253.7540 0001973 101.3453 258.7899 13.15549252160030
ONEWEB-0651             
1 56080U 23043AL  26195.95736527 -.00000025  00000+0 -10031-3 0  9994
2 56080  87.8984 253.6872 0001856  93.2240 266.9103 13.15548611161277
ONEWEB-0718             
1 56081U 23043AM  26195.64837658 -.00000109  00000+0 -32370-3 0  9991
2 56081  87.8989 253.7293 0002539  93.0906 267.0515 13.15549283160046
ONEWEB-0561             
1 56710U 23068A   26195.69737935  .00000056  00000+0  10670-3 0  9997
2 56710  87.9186 268.9617 0001754 104.2617 255.8711 13.20769761153131
ONEWEB-0668             
1 56711U 23068B   26195.63583067 -.00000031  00000+0 -11500-3 0  9995
2 56711  87.9081 223.3200 0002380  80.0902 280.0498 13.16594950155396
ONEWEB-0676             
1 56712U 23068C   26195.56775652 -.00000016  00000+0 -74733-4 0  9992
2 56712  87.9080 223.3400 0001729  91.0810 269.0519 13.16594582155307
ONEWEB-0677             
1 56713U 23068D   26195.76136749  .00000037  00000+0  58600-4 0  9999
2 56713  87.9185 268.9399 0001861  89.0979 271.0368 13.20771830153442
ONEWEB-0678             
1 56714U 23068E   26195.69275034  .00000139  00000+0  33642-3 0  9994
2 56714  87.8995 253.7153 0002026 105.6615 254.4739 13.15548221152904
ONEWEB-0679             
1 56715U 23068F   26195.60258355  .00000143  00000+0  34123-3 0  9993
2 56715  87.9078 223.3245 0001954  78.0690 282.0660 13.16594615155337
ONEWEB-0680             
1 56716U 23068G   26195.64938040  .00000031  00000+0  43309-4 0  9997
2 56716  87.9242 238.5078 0002260  81.3441 278.7949 13.21825839154720
ONEWEB-0681             
1 56717U 23068H   26195.63003303 -.00000014  00000+0 -65910-4 0  9997
2 56717  87.9238 238.5121 0001113  93.0688 267.0574 13.21826991154718
ONEWEB-0682             
1 56718U 23068J   26195.71651919 -.00000104  00000+0 -30973-3 0  9999
2 56718  87.8995 253.7105 0002198  84.3898 275.7483 13.15547953153073
ONEWEB-0683             
1 56719U 23068K   26195.66422472 -.00000088  00000+0 -26804-3 0  9993
2 56719  87.8994 253.7214 0002259  93.4610 266.6779 13.15548575153039
ONEWEB-0684             
1 56720U 23068L   26195.67214496  .00000031  00000+0  47907-4 0  9995
2 56720  87.8991 253.7093 0003002 120.3631 239.7796 13.15549332152865
ONEWEB-0686             
1 56721U 23068M   26195.56300692  .00000047  00000+0  88531-4 0  9993
2 56721  87.9071 223.3533 0002428  92.8269 267.3139 13.16593856155311
ONEWEB-0694             
1 56722U 23068N   26195.56933941  .00000001  00000+0 -32147-4 0  9996
2 56722  87.9092 223.3216 0002291  82.0079 278.1312 13.16593405155370
ONEWEB-0696             
1 56723U 23068P   26195.70541701  .00000050  00000+0  97510-4 0  9990
2 56723  87.8987 253.7387 0002061 113.3515 246.7833 13.15549740152982
ONEWEB-0703             
1 56724U 23068Q   26195.71492624 -.00000026  00000+0 -10181-3 0  9994
2 56724  87.8990 253.7177 0001759 125.4804 234.6490 13.15547823152875
